{
    "links": {
        "self": "http://www.neowsapp.com/rest/v1/neo/3719726?api_key=iIulBulltgU6a56xZRHN4H3l9WmuAYTsLGpBGhQ2"
    },
    "id": "3719726",
    "neo_reference_id": "3719726",
    "name": "(2015 KV56)",
    "designation": "2015 KV56",
    "nasa_jpl_url": "http://ssd.jpl.nasa.gov/sbdb.cgi?sstr=3719726",
    "absolute_magnitude_h": 26.8,
    "estimated_diameter": {
        "kilometers": {
            "estimated_diameter_min": 0.0116025908,
            "estimated_diameter_max": 0.0259441818
        },
        "meters": {
            "estimated_diameter_min": 11.6025908209,
            "estimated_diameter_max": 25.9441817907
        },
        "miles": {
            "estimated_diameter_min": 0.0072095135,
            "estimated_diameter_max": 0.0161209622
        },
        "feet": {
            "estimated_diameter_min": 38.066244069,
            "estimated_diameter_max": 85.1187093863
        }
    },
    "is_potentially_hazardous_asteroid": false,
    "close_approach_data": [
        {
            "close_approach_date": "2012-06-23",
            "close_approach_date_full": "2012-Jun-23 17:31",
            "epoch_date_close_approach": 1340472660000,
            "relative_velocity": {
                "kilometers_per_second": "14.1956724612",
                "kilometers_per_hour": "51104.4208603121",
                "miles_per_hour": "31754.2997284534"
            },
            "miss_distance": {
                "astronomical": "0.2543246838",
                "lunar": "98.9323019982",
                "kilometers": "38046430.984903506",
                "miles": "23640955.9683241428"
            },
            "orbiting_body": "Earth"
        },
        {
            "close_approach_date": "2015-05-20",
            "close_approach_date_full": "2015-May-20 15:39",
            "epoch_date_close_approach": 1432136340000,
            "relative_velocity": {
                "kilometers_per_second": "6.645062629",
                "kilometers_per_hour": "23922.2254643169",
                "miles_per_hour": "14864.3405947585"
            },
            "miss_distance": {
                "astronomical": "0.0308953746",
                "lunar": "12.0183007194",
                "kilometers": "4621882.233012102",
                "miles": "2871904.4476149276"
            },
            "orbiting_body": "Earth"
        }
    ],
    "orbital_data": {
        "orbit_id": "5",
        "orbit_determination_date": "2017-04-06 08:33:38",
        "first_observation_date": "2015-05-21",
        "last_observation_date": "2015-05-25",
        "data_arc_in_days": 4,
        "observations_used": 25,
        "orbit_uncertainty": "8",
        "minimum_orbit_intersection": ".0240863",
        "jupiter_tisserand_invariant": "3.611",
        "epoch_osculation": "2457164.5",
        "eccentricity": ".4996813472421081",
        "semi_major_axis": "2.065580460683697",
        "inclination": ".4228479346386506",
        "ascending_node_longitude": "245.8072433442885",
        "orbital_period": "1084.330320786705",
        "perihelion_distance": "1.033448433252293",
        "perihelion_argument": "340.965565242946",
        "aphelion_distance": "3.097712488115102",
        "perihelion_time": "2457152.922721629544",
        "mean_anomaly": "3.843681333507595",
        "mean_motion": ".3320021520184111",
        "equinox": "J2000",
        "orbit_class": {
            "orbit_class_type": "AMO",
            "orbit_class_description": "Near-Earth asteroid orbits similar to that of 1221 Amor",
            "orbit_class_range": "1.017 AU < q (perihelion) < 1.3 AU"
        }
    },
    "is_sentry_object": false
}